[{"OBJECT_NAME":"STARLINK-5761","OBJECT_ID":"2023-020AG","EPOCH":"2025-12-11T09:40:57.819936","MEAN_MOTION":15.02535143,"ECCENTRICITY":0.00012857,"INCLINATION":43.0018,"RA_OF_ASC_NODE":111.8085,"ARG_OF_PERICENTER":275.2694,"MEAN_ANOMALY":84.8001,"EPHEMERIS_TYPE":0,"CLASSIFICATION_TYPE":"U","NORAD_CAT_ID":55599,"ELEMENT_SET_NO":999,"REV_AT_EPOCH":15578,"BSTAR":4.7777995e-5,"MEAN_MOTION_DOT":4.42e-6,"MEAN_MOTION_DDOT":0},{"OBJECT_NAME":"STARLINK-5755","OBJECT_ID":"2023-020AH","EPOCH":"2025-12-11T15:46:18.064992","MEAN_MOTION":15.02535143,"ECCENTRICITY":0.00010988,"INCLINATION":43.0042,"RA_OF_ASC_NODE":110.2918,"ARG_OF_PERICENTER":273.9944,"MEAN_ANOMALY":86.0773,"EPHEMERIS_TYPE":0,"CLASSIFICATION_TYPE":"U","NORAD_CAT_ID":55600,"ELEMENT_SET_NO":999,"REV_AT_EPOCH":15582,"BSTAR":0.00016488192,"MEAN_MOTION_DOT":2.024e-5,"MEAN_MOTION_DDOT":0},{"OBJECT_NAME":"STARLINK-5744","OBJECT_ID":"2023-020AJ","EPOCH":"2025-12-11T17:35:52.933920","MEAN_MOTION":15.0253272,"ECCENTRICITY":0.00013022,"INCLINATION":43.002,"RA_OF_ASC_NODE":122.1174,"ARG_OF_PERICENTER":274.9599,"MEAN_ANOMALY":85.1094,"EPHEMERIS_TYPE":0,"CLASSIFICATION_TYPE":"U","NORAD_CAT_ID":55601,"ELEMENT_SET_NO":999,"REV_AT_EPOCH":15569,"BSTAR":-2.9630071e-5,"MEAN_MOTION_DOT":-6.04e-6,"MEAN_MOTION_DDOT":0},{"OBJECT_NAME":"STARLINK-5764","OBJECT_ID":"2023-020AK","EPOCH":"2025-12-11T09:37:46.397280","MEAN_MOTION":15.02529565,"ECCENTRICITY":7.7e-5,"INCLINATION":43.0018,"RA_OF_ASC_NODE":111.7921,"ARG_OF_PERICENTER":266.194,"MEAN_ANOMALY":93.8814,"EPHEMERIS_TYPE":0,"CLASSIFICATION_TYPE":"U","NORAD_CAT_ID":55602,"ELEMENT_SET_NO":999,"REV_AT_EPOCH":15578,"BSTAR":-0.00015473404,"MEAN_MOTION_DOT":-2.293e-5,"MEAN_MOTION_DDOT":0},{"OBJECT_NAME":"STARLINK-5735","OBJECT_ID":"2023-020AL","EPOCH":"2025-12-11T17:26:49.097760","MEAN_MOTION":15.02539923,"ECCENTRICITY":0.00013204,"INCLINATION":43.0018,"RA_OF_ASC_NODE":109.9561,"ARG_OF_PERICENTER":275.2133,"MEAN_ANOMALY":84.8559,"EPHEMERIS_TYPE":0,"CLASSIFICATION_TYPE":"U","NORAD_CAT_ID":55603,"ELEMENT_SET_NO":999,"REV_AT_EPOCH":15583,"BSTAR":6.2395858e-5,"MEAN_MOTION_DOT":6.39e-6,"MEAN_MOTION_DDOT":0},{"OBJECT_NAME":"STARLINK-5748","OBJECT_ID":"2023-020AM","EPOCH":"2025-12-12T07:04:02.952768","MEAN_MOTION":15.02511611,"ECCENTRICITY":0.00014265,"INCLINATION":43.0043,"RA_OF_ASC_NODE":93.4641,"ARG_OF_PERICENTER":279.3075,"MEAN_ANOMALY":80.7606,"EPHEMERIS_TYPE":0,"CLASSIFICATION_TYPE":"U","NORAD_CAT_ID":55604,"ELEMENT_SET_NO":999,"REV_AT_EPOCH":15607,"BSTAR":-0.00021030469,"MEAN_MOTION_DOT":-3.041e-5,"MEAN_MOTION_DDOT":0},{"OBJECT_NAME":"STARLINK-5725","OBJECT_ID":"2023-020AN","EPOCH":"2025-12-11T15:44:41.563968","MEAN_MOTION":15.025301,"ECCENTRICITY":5.677e-5,"INCLINATION":43.0035,"RA_OF_ASC_NODE":110.2793,"ARG_OF_PERICENTER":254.6397,"MEAN_ANOMALY":105.4383,"EPHEMERIS_TYPE":0,"CLASSIFICATION_TYPE":"U","NORAD_CAT_ID":55605,"ELEMENT_SET_NO":999,"REV_AT_EPOCH":15582,"BSTAR":-8.75302e-5,"MEAN_MOTION_DOT":-1.385e-5,"MEAN_MOTION_DDOT":0},{"OBJECT_NAME":"STARLINK-5700","OBJECT_ID":"2023-020AQ","EPOCH":"2025-12-11T17:10:50.769696","MEAN_MOTION":15.0253616,"ECCENTRICITY":0.00013501,"INCLINATION":43.0025,"RA_OF_ASC_NODE":109.8709,"ARG_OF_PERICENTER":273.0037,"MEAN_ANOMALY":87.0651,"EPHEMERIS_TYPE":0,"CLASSIFICATION_TYPE":"U","NORAD_CAT_ID":55607,"ELEMENT_SET_NO":999,"REV_AT_EPOCH":15583,"BSTAR":8.11306e-6,"MEAN_MOTION_DOT":-9.4e-7,"MEAN_MOTION_DDOT":0},{"OBJECT_NAME":"STARLINK-5726","OBJECT_ID":"2023-020AR","EPOCH":"2025-12-11T17:07:39.077472","MEAN_MOTION":15.02537707,"ECCENTRICITY":0.00012501,"INCLINATION":43.0049,"RA_OF_ASC_NODE":109.8553,"ARG_OF_PERICENTER":270.9525,"MEAN_ANOMALY":89.1174,"EPHEMERIS_TYPE":0,"CLASSIFICATION_TYPE":"U","NORAD_CAT_ID":55608,"ELEMENT_SET_NO":999,"REV_AT_EPOCH":15583,"BSTAR":-2.6926209e-5,"MEAN_MOTION_DOT":-5.67e-6,"MEAN_MOTION_DDOT":0},{"OBJECT_NAME":"STARLINK-5719","OBJECT_ID":"2023-020AS","EPOCH":"2025-12-11T15:39:54.630432","MEAN_MOTION":15.02535784,"ECCENTRICITY":0.00013753,"INCLINATION":43.0028,"RA_OF_ASC_NODE":110.2546,"ARG_OF_PERICENTER":267.0281,"MEAN_ANOMALY":93.0404,"EPHEMERIS_TYPE":0,"CLASSIFICATION_TYPE":"U","NORAD_CAT_ID":55609,"ELEMENT_SET_NO":999,"REV_AT_EPOCH":15582,"BSTAR":3.067475e-6,"MEAN_MOTION_DOT":-1.62e-6,"MEAN_MOTION_DDOT":0},{"OBJECT_NAME":"STARLINK-5722","OBJECT_ID":"2023-020AT","EPOCH":"2025-12-11T16:56:27.217248","MEAN_MOTION":15.02535502,"ECCENTRICITY":0.00012298,"INCLINATION":43.0031,"RA_OF_ASC_NODE":109.7973,"ARG_OF_PERICENTER":275.3669,"MEAN_ANOMALY":84.7034,"EPHEMERIS_TYPE":0,"CLASSIFICATION_TYPE":"U","NORAD_CAT_ID":55610,"ELEMENT_SET_NO":999,"REV_AT_EPOCH":15583,"BSTAR":8.1672436e-5,"MEAN_MOTION_DOT":9.0e-6,"MEAN_MOTION_DDOT":0},{"OBJECT_NAME":"STARLINK-5730","OBJECT_ID":"2023-020AU","EPOCH":"2025-12-11T16:53:16.970496","MEAN_MOTION":15.02535935,"ECCENTRICITY":0.00017215,"INCLINATION":43.0032,"RA_OF_ASC_NODE":109.7819,"ARG_OF_PERICENTER":282.5327,"MEAN_ANOMALY":77.5323,"EPHEMERIS_TYPE":0,"CLASSIFICATION_TYPE":"U","NORAD_CAT_ID":55611,"ELEMENT_SET_NO":999,"REV_AT_EPOCH":15583,"BSTAR":0.0005498708,"MEAN_MOTION_DOT":7.232e-5,"MEAN_MOTION_DDOT":0},{"OBJECT_NAME":"STARLINK-5734","OBJECT_ID":"2023-020AV","EPOCH":"2025-12-11T16:51:39.380832","MEAN_MOTION":15.02576664,"ECCENTRICITY":0.00015979,"INCLINATION":43.0034,"RA_OF_ASC_NODE":109.7715,"ARG_OF_PERICENTER":271.4438,"MEAN_ANOMALY":88.6221,"EPHEMERIS_TYPE":0,"CLASSIFICATION_TYPE":"U","NORAD_CAT_ID":55612,"ELEMENT_SET_NO":999,"REV_AT_EPOCH":15583,"BSTAR":-0.00038544965,"MEAN_MOTION_DOT":-5.412e-5,"MEAN_MOTION_DDOT":0},{"OBJECT_NAME":"STARLINK-5714","OBJECT_ID":"2023-020AX","EPOCH":"2025-12-12T07:19:54.634080","MEAN_MOTION":15.02572828,"ECCENTRICITY":0.00024666,"INCLINATION":43.0058,"RA_OF_ASC_NODE":93.4989,"ARG_OF_PERICENTER":275.9701,"MEAN_ANOMALY":84.0861,"EPHEMERIS_TYPE":0,"CLASSIFICATION_TYPE":"U","NORAD_CAT_ID":55614,"ELEMENT_SET_NO":999,"REV_AT_EPOCH":15607,"BSTAR":0.00042218265,"MEAN_MOTION_DOT":5.509e-5,"MEAN_MOTION_DDOT":0},{"OBJECT_NAME":"STARLINK-5712","OBJECT_ID":"2023-020AY","EPOCH":"2025-12-11T16:46:52.252032","MEAN_MOTION":15.02536445,"ECCENTRICITY":0.00014239,"INCLINATION":43.0023,"RA_OF_ASC_NODE":109.7435,"ARG_OF_PERICENTER":262.9381,"MEAN_ANOMALY":97.13,"EPHEMERIS_TYPE":0,"CLASSIFICATION_TYPE":"U","NORAD_CAT_ID":55615,"ELEMENT_SET_NO":999,"REV_AT_EPOCH":15583,"BSTAR":-1.8096319e-5,"MEAN_MOTION_DOT":-4.48e-6,"MEAN_MOTION_DDOT":0},{"OBJECT_NAME":"STARLINK-5710","OBJECT_ID":"2023-020AZ","EPOCH":"2025-12-11T14:58:20.753184","MEAN_MOTION":15.02539248,"ECCENTRICITY":0.00012308,"INCLINATION":43.0025,"RA_OF_ASC_NODE":110.0401,"ARG_OF_PERICENTER":269.9175,"MEAN_ANOMALY":90.1527,"EPHEMERIS_TYPE":0,"CLASSIFICATION_TYPE":"U","NORAD_CAT_ID":55616,"ELEMENT_SET_NO":999,"REV_AT_EPOCH":15582,"BSTAR":4.2568827e-5,"MEAN_MOTION_DOT":3.72e-6,"MEAN_MOTION_DDOT":0},{"OBJECT_NAME":"STARLINK-5721","OBJECT_ID":"2023-020BA","EPOCH":"2025-12-11T16:42:03.993984","MEAN_MOTION":15.02543676,"ECCENTRICITY":0.00013035,"INCLINATION":43.003,"RA_OF_ASC_NODE":109.7192,"ARG_OF_PERICENTER":270.8532,"MEAN_ANOMALY":89.2161,"EPHEMERIS_TYPE":0,"CLASSIFICATION_TYPE":"U","NORAD_CAT_ID":55617,"ELEMENT_SET_NO":999,"REV_AT_EPOCH":15583,"BSTAR":2.5150886e-5,"MEAN_MOTION_DOT":1.36e-6,"MEAN_MOTION_DDOT":0},{"OBJECT_NAME":"STARLINK-5717","OBJECT_ID":"2023-020BB","EPOCH":"2025-12-11T18:08:12.833376","MEAN_MOTION":15.02542696,"ECCENTRICITY":0.00017603,"INCLINATION":43.005,"RA_OF_ASC_NODE":109.3109,"ARG_OF_PERICENTER":276.4231,"MEAN_ANOMALY":83.6411,"EPHEMERIS_TYPE":0,"CLASSIFICATION_TYPE":"U","NORAD_CAT_ID":55618,"ELEMENT_SET_NO":999,"REV_AT_EPOCH":15584,"BSTAR":0.00011670724,"MEAN_MOTION_DOT":1.373e-5,"MEAN_MOTION_DDOT":0},{"OBJECT_NAME":"STARLINK-5720","OBJECT_ID":"2023-020BC","EPOCH":"2025-12-11T14:51:57.323808","MEAN_MOTION":15.02537,"ECCENTRICITY":0.0001254,"INCLINATION":43.0027,"RA_OF_ASC_NODE":110.0057,"ARG_OF_PERICENTER":267.0012,"MEAN_ANOMALY":93.0687,"EPHEMERIS_TYPE":0,"CLASSIFICATION_TYPE":"U","NORAD_CAT_ID":55619,"ELEMENT_SET_NO":999,"REV_AT_EPOCH":15582,"BSTAR":4.3732286e-5,"MEAN_MOTION_DOT":3.87e-6,"MEAN_MOTION_DDOT":0},{"OBJECT_NAME":"STARLINK-5718","OBJECT_ID":"2023-020BD","EPOCH":"2025-12-11T17:58:37.313472","MEAN_MOTION":15.02540343,"ECCENTRICITY":0.0001263,"INCLINATION":43.0032,"RA_OF_ASC_NODE":109.2578,"ARG_OF_PERICENTER":268.5286,"MEAN_ANOMALY":91.5411,"EPHEMERIS_TYPE":0,"CLASSIFICATION_TYPE":"U","NORAD_CAT_ID":55620,"ELEMENT_SET_NO":999,"REV_AT_EPOCH":15584,"BSTAR":0.00020108662,"MEAN_MOTION_DOT":2.514e-5,"MEAN_MOTION_DDOT":0},{"OBJECT_NAME":"STARLINK-5709","OBJECT_ID":"2023-020BE","EPOCH":"2025-12-11T15:03:09.013824","MEAN_MOTION":15.02535478,"ECCENTRICITY":0.00012563,"INCLINATION":43.0036,"RA_OF_ASC_NODE":110.0662,"ARG_OF_PERICENTER":271.1735,"MEAN_ANOMALY":88.8964,"EPHEMERIS_TYPE":0,"CLASSIFICATION_TYPE":"U","NORAD_CAT_ID":55621,"ELEMENT_SET_NO":999,"REV_AT_EPOCH":15582,"BSTAR":0.00015759231,"MEAN_MOTION_DOT":1.926e-5,"MEAN_MOTION_DDOT":0},{"OBJECT_NAME":"STARLINK-5702","OBJECT_ID":"2023-020BF","EPOCH":"2025-12-11T14:43:58.248768","MEAN_MOTION":15.02536158,"ECCENTRICITY":0.00014029,"INCLINATION":43.003,"RA_OF_ASC_NODE":109.9673,"ARG_OF_PERICENTER":271.7452,"MEAN_ANOMALY":88.323,"EPHEMERIS_TYPE":0,"CLASSIFICATION_TYPE":"U","NORAD_CAT_ID":55622,"ELEMENT_SET_NO":999,"REV_AT_EPOCH":15582,"BSTAR":6.8300213e-5,"MEAN_MOTION_DOT":7.19e-6,"MEAN_MOTION_DDOT":0},{"OBJECT_NAME":"STARLINK-5698","OBJECT_ID":"2023-020BG","EPOCH":"2025-12-11T09:50:23.168832","MEAN_MOTION":15.02533679,"ECCENTRICITY":0.00011748,"INCLINATION":43.0029,"RA_OF_ASC_NODE":111.0154,"ARG_OF_PERICENTER":271.4978,"MEAN_ANOMALY":88.573,"EPHEMERIS_TYPE":0,"CLASSIFICATION_TYPE":"U","NORAD_CAT_ID":55623,"ELEMENT_SET_NO":999,"REV_AT_EPOCH":15579,"BSTAR":0.00010025824,"MEAN_MOTION_DOT":1.151e-5,"MEAN_MOTION_DDOT":0}]
